[{"spaceTrack":{"CCSDS_OMM_VERS":"2.0","COMMENT":"GENERATED VIA SPACE-TRACK.ORG API","CREATION_DATE":"2021-10-26T14:46:11","ORIGINATOR":"18 SPCS","OBJECT_NAME":"STARLINK-1931","OBJECT_ID":"2020-074BD","CENTER_NAME":"EARTH","REF_FRAME":"TEME","TIME_SYSTEM":"UTC","MEAN_ELEMENT_THEORY":"SGP4","EPOCH":"2021-10-26T07:57:10.390464","MEAN_MOTION":15.06402018,"ECCENTRICITY":0.0001658,"INCLINATION":53.0552,"RA_OF_ASC_NODE":283.452,"ARG_OF_PERICENTER":73.1756,"MEAN_ANOMALY":286.9414,"EPHEMERIS_TYPE":0,"CLASSIFICATION_TYPE":"U","NORAD_CAT_ID":46790,"ELEMENT_SET_NO":999,"REV_AT_EPOCH":5589,"BSTAR":0.000050258,"MEAN_MOTION_DOT":0.00000467,"MEAN_MOTION_DDOT":0,"SEMIMAJOR_AXIS":6925.342,"PERIOD":95.592,"APOAPSIS":548.356,"PERIAPSIS":546.059,"OBJECT_TYPE":"PAYLOAD","RCS_SIZE":"LARGE","COUNTRY_CODE":"US","LAUNCH_DATE":"2020-10-24","SITE":"AFETR","DECAY_DATE":null,"DECAYED":0,"FILE":3184763,"GP_ID":188174058,"TLE_LINE0":"0 STARLINK-1931","TLE_LINE1":"1 46790U 20074BD  21299.33137026  .00000467  00000-0  50258-4 0  9998","TLE_LINE2":"2 46790  53.0552 283.4520 0001658  73.1756 286.9414 15.06402018 55899"},"height_km":565.5361317908746,"latitude":-50.31532233659168,"launch":"5ef6a2e70059c33cee4a8293","longitude":-51.358333323311335,"velocity_kms":7.577693449704764,"version":"v1.0","id":"5fa3109229f50d0006226d84"},{"spaceTrack":{"CCSDS_OMM_VERS":"2.0","COMMENT":"GENERATED VIA SPACE-TRACK.ORG API","CREATION_DATE":"2021-10-26T14:56:12","ORIGINATOR":"18 SPCS","OBJECT_NAME":"STARLINK-1918","OBJECT_ID":"2020-074AF","CENTER_NAME":"EARTH","REF_FRAME":"TEME","TIME_SYSTEM":"UTC","MEAN_ELEMENT_THEORY":"SGP4","EPOCH":"2021-10-26T10:15:49.420512","MEAN_MOTION":15.06403125,"ECCENTRICITY":0.0001373,"INCLINATION":53.0556,"RA_OF_ASC_NODE":298.0263,"ARG_OF_PERICENTER":75.3413,"MEAN_ANOMALY":284.7728,"EPHEMERIS_TYPE":0,"CLASSIFICATION_TYPE":"U","NORAD_CAT_ID":46768,"ELEMENT_SET_NO":999,"REV_AT_EPOCH":5604,"BSTAR":-0.0000026507,"MEAN_MOTION_DOT":-0.00000321,"MEAN_MOTION_DDOT":0,"SEMIMAJOR_AXIS":6925.339,"PERIOD":95.592,"APOAPSIS":548.155,"PERIAPSIS":546.253,"OBJECT_TYPE":"PAYLOAD","RCS_SIZE":"LARGE","COUNTRY_CODE":"US","LAUNCH_DATE":"2020-10-24","SITE":"AFETR","DECAY_DATE":null,"DECAYED":0,"FILE":3184876,"GP_ID":188177034,"TLE_LINE0":"0 STARLINK-1918","TLE_LINE1":"1 46768U 20074AF  21299.42765533 -.00000321  00000-0 -26507-5 0  9995","TLE_LINE2":"2 46768  53.0556 298.0263 0001373  75.3413 284.7728 15.06403125 56044"},"height_km":550.5409903569225,"latitude":41.78702880037465,"launch":"5ef6a2e70059c33cee4a8293","longitude":166.04281583680702,"velocity_kms":7.592197647313831,"version":"v1.0","id":"5fa3109229f50d0006226d85"},{"spaceTrack":{"CCSDS_OMM_VERS":"2.0","COMMENT":"GENERATED VIA SPACE-TRACK.ORG API","CREATION_DATE":"2021-10-26T14:36:12","ORIGINATOR":"18 SPCS","OBJECT_NAME":"STARLINK-1798","OBJECT_ID":"2020-074AS","CENTER_NAME":"EARTH","REF_FRAME":"TEME","TIME_SYSTEM":"UTC","MEAN_ELEMENT_THEORY":"SGP4","EPOCH":"2021-10-26T04:47:24.282240","MEAN_MOTION":15.06405294,"ECCENTRICITY":0.0001622,"INCLINATION":53.0545,"RA_OF_ASC_NODE":274.0465,"ARG_OF_PERICENTER":71.7334,"MEAN_ANOMALY":288.3832,"EPHEMERIS_TYPE":0,"CLASSIFICATION_TYPE":"U","NORAD_CAT_ID":46779,"ELEMENT_SET_NO":999,"REV_AT_EPOCH":5605,"BSTAR":0.000021133,"MEAN_MOTION_DOT":3.3e-7,"MEAN_MOTION_DDOT":0,"SEMIMAJOR_AXIS":6925.332,"PERIOD":95.592,"APOAPSIS":548.321,"PERIAPSIS":546.074,"OBJECT_TYPE":"PAYLOAD","RCS_SIZE":"LARGE","COUNTRY_CODE":"US","LAUNCH_DATE":"2020-10-24","SITE":"AFETR","DECAY_DATE":null,"DECAYED":0,"FILE":3184648,"GP_ID":188171083,"TLE_LINE0":"0 STARLINK-1798","TLE_LINE1":"1 46779U 20074AS  21299.19958660  .00000033  00000-0  21133-4 0  9993","TLE_LINE2":"2 46779  53.0545 274.0465 0001622  71.7334 288.3832 15.06405294 56057"},"height_km":566.1206258090879,"latitude":-51.78175271603286,"launch":"5ef6a2e70059c33cee4a8293","longitude":-68.79457378006232,"velocity_kms":7.577373048278587,"version":"v1.0","id":"5fa3109229f50d0006226d86"},{"spaceTrack":{"CCSDS_OMM_VERS":"2.0","COMMENT":"GENERATED VIA SPACE-TRACK.ORG API","CREATION_DATE":"2021-10-25T22:46:11","ORIGINATOR":"18 SPCS","OBJECT_NAME":"STARLINK-1896","OBJECT_ID":"2020-074X","CENTER_NAME":"EARTH","REF_FRAME":"TEME","TIME_SYSTEM":"UTC","MEAN_ELEMENT_THEORY":"SGP4","EPOCH":"2021-10-25T10:12:07.242912","MEAN_MOTION":15.06399069,"ECCENTRICITY":0.0001253,"INCLINATION":53.0531,"RA_OF_ASC_NODE":302.5377,"ARG_OF_PERICENTER":82.8911,"MEAN_ANOMALY":277.222,"EPHEMERIS_TYPE":0,"CLASSIFICATION_TYPE":"U","NORAD_CAT_ID":46760,"ELEMENT_SET_NO":999,"REV_AT_EPOCH":5589,"BSTAR":0.000029706,"MEAN_MOTION_DOT":0.00000161,"MEAN_MOTION_DDOT":0,"SEMIMAJOR_AXIS":6925.351,"PERIOD":95.592,"APOAPSIS":548.084,"PERIAPSIS":546.349,"OBJECT_TYPE":"PAYLOAD","RCS_SIZE":"LARGE","COUNTRY_CODE":"US","LAUNCH_DATE":"2020-10-24","SITE":"AFETR","DECAY_DATE":null,"DECAYED":0,"FILE":3183757,"GP_ID":188152308,"TLE_LINE0":"0 STARLINK-1896","TLE_LINE1":"1 46760U 20074X   21298.42508383  .00000161  00000-0  29706-4 0  9997","TLE_LINE2":"2 46760  53.0531 302.5377 0001253  82.8911 277.2220 15.06399069 55896"},"height_km":547.1419366623295,"latitude":12.954505778400252,"launch":"5ef6a2e70059c33cee4a8293","longitude":-161.90996166361094,"velocity_kms":7.590826221884458,"version":"v1.0","id":"5fa3109229f50d0006226d8c"},{"spaceTrack":{"CCSDS_OMM_VERS":"2.0","COMMENT":"GENERATED VIA SPACE-TRACK.ORG API","CREATION_DATE":"2021-10-26T14:46:11","ORIGINATOR":"18 SPCS","OBJECT_NAME":"STARLINK-1928","OBJECT_ID":"2020-074V","CENTER_NAME":"EARTH","REF_FRAME":"TEME","TIME_SYSTEM":"UTC","MEAN_ELEMENT_THEORY":"SGP4","EPOCH":"2021-10-26T09:55:57.554112","MEAN_MOTION":15.06408491,"ECCENTRICITY":0.0001656,"INCLINATION":53.0544,"RA_OF_ASC_NODE":288.0989,"ARG_OF_PERICENTER":74.2679,"MEAN_ANOMALY":285.8492,"EPHEMERIS_TYPE":0,"CLASSIFICATION_TYPE":"U","NORAD_CAT_ID":46758,"ELEMENT_SET_NO":999,"REV_AT_EPOCH":5618,"BSTAR":0.00032109,"MEAN_MOTION_DOT":0.00004505,"MEAN_MOTION_DDOT":0,"SEMIMAJOR_AXIS":6925.323,"PERIOD":95.592,"APOAPSIS":548.334,"PERIAPSIS":546.041,"OBJECT_TYPE":"PAYLOAD","RCS_SIZE":"LARGE","COUNTRY_CODE":"US","LAUNCH_DATE":"2020-10-24","SITE":"AFETR","DECAY_DATE":null,"DECAYED":0,"FILE":3184791,"GP_ID":188174043,"TLE_LINE0":"0 STARLINK-1928","TLE_LINE1":"1 46758U 20074V   21299.41386058  .00004505  00000-0  32109-3 0  9993","TLE_LINE2":"2 46758  53.0544 288.0989 0001656  74.2679 285.8492 15.06408491 56186"},"height_km":551.7959859279681,"latitude":-14.908219388692045,"launch":"5ef6a2e70059c33cee4a8293","longitude":-150.51461403613195,"velocity_kms":7.585913799328906,"version":"v1.0","id":"5fa31092c4fa370006feecf5"},{"spaceTrack":{"CCSDS_OMM_VERS":"2.0","COMMENT":"GENERATED VIA SPACE-TRACK.ORG API","CREATION_DATE":"2021-10-26T14:56:12","ORIGINATOR":"18 SPCS","OBJECT_NAME":"STARLINK-1893","OBJECT_ID":"2020-074AZ","CENTER_NAME":"EARTH","REF_FRAME":"TEME","TIME_SYSTEM":"UTC","MEAN_ELEMENT_THEORY":"SGP4","EPOCH":"2021-10-26T08:38:17.585664","MEAN_MOTION":15.06401721,"ECCENTRICITY":0.0006557,"INCLINATION":53.0528,"RA_OF_ASC_NODE":253.3225,"ARG_OF_PERICENTER":34.9752,"MEAN_ANOMALY":325.1666,"EPHEMERIS_TYPE":0,"CLASSIFICATION_TYPE":"U","NORAD_CAT_ID":46786,"ELEMENT_SET_NO":999,"REV_AT_EPOCH":5632,"BSTAR":-0.000018632,"MEAN_MOTION_DOT":-0.00000561,"MEAN_MOTION_DDOT":0,"SEMIMAJOR_AXIS":6925.343,"PERIOD":95.592,"APOAPSIS":551.749,"PERIAPSIS":542.667,"OBJECT_TYPE":"PAYLOAD","RCS_SIZE":"LARGE","COUNTRY_CODE":"US","LAUNCH_DATE":"2020-10-24","SITE":"AFETR","DECAY_DATE":null,"DECAYED":0,"FILE":3184874,"GP_ID":188176990,"TLE_LINE0":"0 STARLINK-1893","TLE_LINE1":"1 46786U 20074AZ  21299.35992576 -.00000561  00000-0 -18632-4 0  9991","TLE_LINE2":"2 46786  53.0528 253.3225 0006557  34.9752 325.1666 15.06401721 56323"},"height_km":550.6120156769939,"latitude":37.0317602589876,"launch":"5ef6a2e70059c33cee4a8293","longitude":128.62874336268,"velocity_kms":7.591068752988334,"version":"v1.0","id":"5fa31092c4fa370006feecfa"},{"spaceTrack":{"CCSDS_OMM_VERS":"2.0","COMMENT":"GENERATED VIA SPACE-TRACK.ORG API","CREATION_DATE":"2021-10-26T14:46:11","ORIGINATOR":"18 SPCS","OBJECT_NAME":"STARLINK-1936","OBJECT_ID":"2020-074AK","CENTER_NAME":"EARTH","REF_FRAME":"TEME","TIME_SYSTEM":"UTC","MEAN_ELEMENT_THEORY":"SGP4","EPOCH":"2021-10-26T10:26:26.103840","MEAN_MOTION":15.06401176,"ECCENTRICITY":0.0001215,"INCLINATION":53.0546,"RA_OF_ASC_NODE":298.003,"ARG_OF_PERICENTER":72.0939,"MEAN_ANOMALY":288.0183,"EPHEMERIS_TYPE":0,"CLASSIFICATION_TYPE":"U","NORAD_CAT_ID":46772,"ELEMENT_SET_NO":999,"REV_AT_EPOCH":5604,"BSTAR":0.00013921,"MEAN_MOTION_DOT":0.00001793,"MEAN_MOTION_DDOT":0,"SEMIMAJOR_AXIS":6925.345,"PERIOD":95.592,"APOAPSIS":548.051,"PERIAPSIS":546.369,"OBJECT_TYPE":"PAYLOAD","RCS_SIZE":"LARGE","COUNTRY_CODE":"US","LAUNCH_DATE":"2020-10-24","SITE":"AFETR","DECAY_DATE":null,"DECAYED":0,"FILE":3184770,"GP_ID":188174164,"TLE_LINE0":"0 STARLINK-1936","TLE_LINE1":"1 46772U 20074AK  21299.43502435  .00001793  00000-0  13921-3 0  9997","TLE_LINE2":"2 46772  53.0546 298.0030 0001215  72.0939 288.0183 15.06401176 56048"},"height_km":552.8402259482755,"latitude":52.74635226830712,"launch":"5ef6a2e70059c33cee4a8293","longitude":107.5660199186856,"velocity_kms":7.5921391568475975,"version":"v1.0","id":"5fa31092c4fa370006feecf7"}]